     2.100          NAVIGATION                              RINEX VERSION / TYPE
fic2rin                                 07/09/2013 00:13:53 PGM / RUN BY / DATE
                                                            END OF HEADER
29 13  7  8  6  0  0.0  .451690517366D-03  .329691829393D-11  .000000000000D+00
     .840000000000D+02 -.797812500000D+02  .398052294762D-08 -.233684028735D+01
    -.407733023167D-05  .173530960456D-02  .106003135443D-04  .515362908554D+04
     .108000000000D+06  .130385160446D-07  .306848748897D+01  .391155481339D-07
     .966895132938D+00  .176437500000D+03 -.981378896747D+00 -.769067749044D-08
     .208937274505D-09  .100000000000D+01  .174800000000D+04  .000000000000D+00
     .240000000000D+01  .000000000000D+00 -.931322574615D-08  .840000000000D+02
     .100806000000D+06  .400000000000D+01
30 13  7  8  6  0  0.0 -.170588493347D-03  .113686837722D-11  .000000000000D+00
     .820000000000D+02 -.765000000000D+02  .547022785695D-08  .207873063593D+01
    -.402145087719D-05  .636744697113D-02  .233575701714D-05  .515368654060D+04
     .108000000000D+06 -.912696123123D-07  .198321743137D+01 -.119209289551D-06
     .978002198014D+00  .344500000000D+03  .876066676288D+00 -.816141138411D-08
    -.200008331150D-09  .100000000000D+01  .174800000000D+04  .000000000000D+00
     .340000000000D+01  .630000000000D+02 -.190921127796D-07  .820000000000D+02
     .100806000000D+06  .400000000000D+01
31 13  7  8  6  0  0.0  .320062041283D-03  .102318153949D-11  .000000000000D+00
     .500000000000D+02  .105968750000D+03  .414945855589D-08 -.163537291747D+01
     .554323196411D-05  .784445623867D-02  .406615436077D-05  .515362418175D+04
     .108000000000D+06 -.856816768646D-07  .950037446610D+00  .130385160446D-07
     .980235349777D+00  .315031250000D+03 -.736095287426D+00 -.808747973314D-08
     .253581991279D-09  .100000000000D+01  .174800000000D+04  .000000000000D+00
     .240000000000D+01  .000000000000D+00 -.130385160446D-07  .500000000000D+02
     .100806000000D+06  .400000000000D+01
32 13  7  8  6  0  0.0 -.558577477932D-03  .682121026330D-12  .000000000000D+00
     .290000000000D+02 -.249375000000D+02  .526236205565D-08 -.115190617068D+01
    -.130757689476D-05  .115631655790D-01  .618211925030D-05  .515364533806D+04
     .108000000000D+06  .204890966415D-07 -.108286265620D+01 -.156462192535D-06
     .948698332362D+00  .254781250000D+03 -.339770837253D+00 -.836499129261D-08
    -.253224833545D-09  .100000000000D+01  .174800000000D+04  .000000000000D+00
     .240000000000D+01  .000000000000D+00 -.279396772385D-08  .290000000000D+02
     .100806000000D+06  .400000000000D+01
10 13  7  8  5 59 44.0 -.861934386194D-04 -.136424205266D-11  .000000000000D+00
     .300000000000D+01 -.227812500000D+02  .537236663778D-08  .220568886962D+01
    -.131875276566D-05  .124838455813D-01  .565499067307D-05  .515363750076D+04
     .107984000000D+06 -.189989805222D-06 -.115258363341D+01 -.247731804848D-06
     .942940400910D+00  .262906250000D+03  .805099951187D+00 -.823462871962D-08
    -.305012705003D-09  .100000000000D+01  .174800000000D+04  .000000000000D+00
     .240000000000D+01  .000000000000D+00 -.279396772385D-08  .300000000000D+01
     .102786000000D+06  .400000000000D+01
14 13  7  8  5 59 44.0  .219595618546D-03 -.454747350886D-12  .000000000000D+00
     .170000000000D+02  .635937500000D+02  .399695220339D-08  .936057710744D+00
     .338442623615D-05  .710285454988D-02  .111162662506D-04  .515377061462D+04
     .107984000000D+06 -.819563865662D-07 -.507095726458D-01  .558793544769D-07
     .974157827778D+00  .175781250000D+03 -.203689139099D+01 -.773817946909D-08
    -.395730769489D-09  .100000000000D+01  .174800000000D+04  .000000000000D+00
     .240000000000D+01  .000000000000D+00 -.884756445885D-08  .170000000000D+02
     .103956000000D+06  .400000000000D+01
17 13  7  8  5 59 44.0  .124284997582D-05 -.375166564481D-11  .000000000000D+00
     .900000000000D+01 -.940312500000D+02  .405052586352D-08  .115053879139D+01
    -.491179525852D-05  .836587301455D-02  .105593353510D-04  .515366171074D+04
     .107984000000D+06 -.132247805595D-06  .305967169593D+01  .465661287308D-07
     .966245344226D+00  .176875000000D+03 -.219047489464D+01 -.783425489959D-08
     .120004998690D-09  .100000000000D+01  .174800000000D+04  .000000000000D+00
     .240000000000D+01  .000000000000D+00 -.102445483208D-07  .900000000000D+01
     .105576000000D+06  .400000000000D+01
28 13  7  8  5 59 44.0  .273889862001D-03  .318323145621D-11  .000000000000D+00
     .200000000000D+01 -.793750000000D+02  .396480800731D-08  .193837418509D+01
    -.443123281002D-05  .186183614423D-01  .182166695595D-05  .515364983368D+04
     .107984000000D+06  .156462192535D-06  .202974693211D+01 -.366941094398D-06
     .983528270117D+00  .356593750000D+03 -.176718132000D+01 -.795961726429D-08
    -.189293599124D-09  .100000000000D+01  .174800000000D+04  .000000000000D+00
     .240000000000D+01  .000000000000D+00 -.107102096081D-07  .200000000000D+01
     .107016000000D+06  .400000000000D+01
10 13  7  8  7 59 44.0 -.862032175064D-04 -.136424205266D-11  .000000000000D+00
     .120000000000D+02 -.234375000000D+02  .532415034366D-08 -.302727705742D+01
    -.138208270073D-05  .124840338249D-01  .567547976971D-05  .515363708115D+04
     .115184000000D+06  .130385160446D-07 -.115264227887D+01 -.230967998505D-06
     .942938642482D+00  .261312500000D+03  .805089637615D+00 -.813498171178D-08
    -.293226499775D-09  .100000000000D+01  .174800000000D+04  .000000000000D+00
     .240000000000D+01  .000000000000D+00 -.279396772385D-08  .120000000000D+02
     .108006000000D+06  .400000000000D+01
14 13  7  8  7 59 44.0  .219592358917D-03 -.454747350886D-12  .000000000000D+00
     .290000000000D+02  .545625000000D+02  .393016370709D-08  .198603583814D+01
     .271014869213D-05  .710333022289D-02  .110622495413D-04  .515377255821D+04
     .115184000000D+06 -.670552253723D-07 -.507653390830D-01 -.156462192535D-06
     .974155997667D+00  .173906250000D+03 -.203675257469D+01 -.755888628653D-08
    -.311798701953D-09  .100000000000D+01  .174800000000D+04  .000000000000D+00
     .240000000000D+01  .000000000000D+00 -.884756445885D-08  .290000000000D+02
     .108006000000D+06  .400000000000D+01
17 13  7  8  7 59 44.0  .121630728245D-05 -.375166564481D-11  .000000000000D+00
     .100000000000D+02 -.975625000000D+02  .391194866265D-08  .220075098860D+01
    -.493787229061D-05  .836659071501D-02  .110361725092D-04  .515366112137D+04
     .115184000000D+06 -.651925802231D-07  .305961532092D+01 -.189989805222D-06
     .966247363053D+00  .167093750000D+03 -.219050310994D+01 -.762531762509D-08
     .202508435289D-09  .100000000000D+01  .174800000000D+04  .000000000000D+00
     .240000000000D+01  .000000000000D+00 -.102445483208D-07  .100000000000D+02
     .108006000000D+06  .400000000000D+01
28 13  7  8  7 59 44.0  .273913145065D-03  .318323145621D-11  .000000000000D+00
     .300000000000D+01 -.906250000000D+02  .399730936112D-08  .298861849920D+01
    -.457838177681D-05  .186195615679D-01  .184588134289D-05  .515364700699D+04
     .115184000000D+06  .165775418282D-06  .202969143193D+01 -.633299350739D-07
     .983527262167D+00  .354687500000D+03 -.176723370125D+01 -.774996567432D-08
    -.286083345091D-09  .100000000000D+01  .174800000000D+04  .000000000000D+00
     .240000000000D+01  .000000000000D+00 -.107102096081D-07  .300000000000D+01
     .108006000000D+06  .400000000000D+01
 1 13  7  8  8  0  0.0  .471905805171D-04  .488853402203D-11  .000000000000D+00
     .200000000000D+02  .206250000000D+02  .473484008224D-08  .534509977400D-01
     .112317502499D-05  .206678407267D-02  .743009150028D-05  .515368893242D+04
     .115200000000D+06  .409781932831D-07 -.221515626540D+01  .242143869400D-07
     .960134081484D+00  .237187500000D+03  .273134921669D+00 -.804676375144D-08
     .607882463602D-09  .100000000000D+01  .174800000000D+04  .000000000000D+00
     .240000000000D+01  .000000000000D+00  .838190317154D-08  .200000000000D+02
     .108006000000D+06  .400000000000D+01
 2 13  7  8  8  0  0.0  .440719537437D-03  .181898940355D-11  .000000000000D+00
     .440000000000D+02  .227500000000D+02  .521843165434D-08  .797229564566D+00
     .111013650894D-05  .124419654021D-01  .771321356297D-05  .515368281555D+04
     .115200000000D+06 -.763684511185D-07 -.223773162806D+01  .171363353729D-06
     .938662936702D+00  .220687500000D+03 -.257992986334D+01 -.835141929871D-08
     .498592196938D-09  .100000000000D+01  .174800000000D+04  .000000000000D+00
     .240000000000D+01  .000000000000D+00 -.176951289177D-07  .440000000000D+02
     .108006000000D+06  .400000000000D+01
 3 13  7  8  8  0  0.0  .229945871979D-03  .488853402203D-11  .000000000000D+00
     .170000000000D+02 -.985937500000D+02  .485305929226D-08  .969288522506D+00
    -.522844493389D-05  .164752613055D-01  .987201929092D-05  .515371221924D+04
     .115200000000D+06 -.238418579102D-06  .287566297212D+01 -.670552253723D-07
     .935330223527D+00  .181343750000D+03  .130191795399D+01 -.841070748258D-08
    -.103575742917D-09  .100000000000D+01  .174800000000D+04  .000000000000D+00
     .240000000000D+01  .000000000000D+00 -.465661287308D-08  .170000000000D+02
     .108006000000D+06  .400000000000D+01
 4 13  7  8  8  0  0.0  .266538932920D-03  .102318153949D-10  .000000000000D+00
     .105000000000D+03  .212500000000D+02  .513485674454D-08 -.226868998384D+01
     .812113285065D-06  .103425541893D-01  .721774995327D-05  .515356849670D+04
     .115200000000D+06  .152736902237D-06 -.222132436397D+01 -.502914190292D-07
     .937684891117D+00  .221812500000D+03  .985083412015D+00 -.808747973314D-08
     .736102090178D-09  .100000000000D+01  .174800000000D+04  .000000000000D+00
     .340000000000D+01  .000000000000D+00 -.605359673500D-08  .105000000000D+03
     .108006000000D+06  .400000000000D+01
